{"type": "FeatureCollection", "features": [{"type": "Feature", "properties": {"norad_id": 28890, "name": "BEIJING 1", "group": "dmc", "lat": 11.462933575893539, "lon": 105.11874649738577, "alt_km": 693.051124455822, "timestamp": "2025-12-05T07:38:18.515092+00:00", "meta": {"OBJECT_NAME": "BEIJING 1", "OBJECT_ID": "2005-043A", "EPOCH": "2025-12-04T18:27:25.874208", "MEAN_MOTION": 14.63354511, "ECCENTRICITY": 0.0014923, "INCLINATION": 98.2651, "RA_OF_ASC_NODE": 106.2575, "ARG_OF_PERICENTER": 165.5498, "MEAN_ANOMALY": 194.6133, "EPHEMERIS_TYPE": 0, "CLASSIFICATION_TYPE": "U", "NORAD_CAT_ID": 28890, "ELEMENT_SET_NO": 999, "REV_AT_EPOCH": 7221, "BSTAR": 0.00016789, "MEAN_MOTION_DOT": 8.2e-06, "MEAN_MOTION_DDOT": 0}, "tle": {"line1": "1 28890U 05043A   25338.76904947  .00000820  00000+0  16789-3 0  9999", "line2": "2 28890  98.2651 106.2575 0014923 165.5498 194.6133 14.63354511 72215"}}, "geometry": {"type": "Point", "coordinates": [105.11874649738577, 11.462933575893539]}}, {"type": "Feature", "properties": {"norad_id": 33320, "name": "HUANJING 1A (HJ-1A)", "group": "dmc", "lat": -45.15393012182405, "lon": 140.15773122579316, "alt_km": 639.6151413861635, "timestamp": "2025-12-05T07:38:18.515118+00:00", "meta": {"OBJECT_NAME": "HUANJING 1A (HJ-1A)", "OBJECT_ID": "2008-041A", "EPOCH": "2025-12-04T17:40:26.802912", "MEAN_MOTION": 14.83354932, "ECCENTRICITY": 0.0020609, "INCLINATION": 97.653, "RA_OF_ASC_NODE": 327.3696, "ARG_OF_PERICENTER": 59.3492, "MEAN_ANOMALY": 300.9751, "EPHEMERIS_TYPE": 0, "CLASSIFICATION_TYPE": "U", "NORAD_CAT_ID": 33320, "ELEMENT_SET_NO": 999, "REV_AT_EPOCH": 92957, "BSTAR": 0.00042685, "MEAN_MOTION_DOT": 3.461e-05, "MEAN_MOTION_DDOT": 0}, "tle": {"line1": "1 33320U 08041A   25338.73642133  .00003461  00000+0  42685-3 0  9995", "line2": "2 33320  97.6530 327.3696 0020609  59.3492 300.9751 14.83354932929577"}}, "geometry": {"type": "Point", "coordinates": [140.15773122579316, -45.15393012182405]}}, {"type": "Feature", "properties": {"norad_id": 33321, "name": "HUANJING 1B (HJ-1B)", "group": "dmc", "lat": 75.88756058374005, "lon": -176.09147572502147, "alt_km": 586.620273121599, "timestamp": "2025-12-05T07:38:18.515132+00:00", "meta": {"OBJECT_NAME": "HUANJING 1B (HJ-1B)", "OBJECT_ID": "2008-041B", "EPOCH": "2025-12-04T18:13:34.358016", "MEAN_MOTION": 14.82789219, "ECCENTRICITY": 0.0038222, "INCLINATION": 97.6391, "RA_OF_ASC_NODE": 331.1095, "ARG_OF_PERICENTER": 101.0469, "MEAN_ANOMALY": 259.5047, "EPHEMERIS_TYPE": 0, "CLASSIFICATION_TYPE": "U", "NORAD_CAT_ID": 33321, "ELEMENT_SET_NO": 999, "REV_AT_EPOCH": 92959, "BSTAR": 0.00031985, "MEAN_MOTION_DOT": 2.568e-05, "MEAN_MOTION_DDOT": 0}, "tle": {"line1": "1 33321U 08041B   25338.75942544  .00002568  00000+0  31985-3 0  9995", "line2": "2 33321  97.6391 331.1095 0038222 101.0469 259.5047 14.82789219929596"}}, "geometry": {"type": "Point", "coordinates": [-176.09147572502147, 75.88756058374005]}}, {"type": "Feature", "properties": {"norad_id": 33446, "name": "YAOGAN-4", "group": "dmc", "lat": 16.894237776267328, "lon": -92.93165070726124, "alt_km": 612.8124993855963, "timestamp": "2025-12-05T07:38:18.515144+00:00", "meta": {"OBJECT_NAME": "YAOGAN-4", "OBJECT_ID": "2008-061A", "EPOCH": "2025-12-04T16:59:04.308864", "MEAN_MOTION": 14.82643182, "ECCENTRICITY": 0.0014289, "INCLINATION": 97.9172, "RA_OF_ASC_NODE": 268.8863, "ARG_OF_PERICENTER": 350.1762, "MEAN_ANOMALY": 9.917, "EPHEMERIS_TYPE": 0, "CLASSIFICATION_TYPE": "U", "NORAD_CAT_ID": 33446, "ELEMENT_SET_NO": 999, "REV_AT_EPOCH": 91684, "BSTAR": 0.00041256, "MEAN_MOTION_DOT": 3.277e-05, "MEAN_MOTION_DDOT": 0}, "tle": {"line1": "1 33446U 08061A   25338.70768876  .00003277  00000+0  41256-3 0  9994", "line2": "2 33446  97.9172 268.8863 0014289 350.1762   9.9170 14.82643182916849"}}, "geometry": {"type": "Point", "coordinates": [-92.93165070726124, 16.894237776267328]}}, {"type": "Feature", "properties": {"norad_id": 35681, "name": "DEIMOS-1", "group": "dmc", "lat": -7.066028070064338, "lon": 141.23006990670095, "alt_km": 649.5703261392237, "timestamp": "2025-12-05T07:38:18.515156+00:00", "meta": {"OBJECT_NAME": "DEIMOS-1", "OBJECT_ID": "2009-041A", "EPOCH": "2025-12-04T17:01:01.499232", "MEAN_MOTION": 14.7493367, "ECCENTRICITY": 0.0002693, "INCLINATION": 97.7146, "RA_OF_ASC_NODE": 139.6867, "ARG_OF_PERICENTER": 94.7346, "MEAN_ANOMALY": 265.4171, "EPHEMERIS_TYPE": 0, "CLASSIFICATION_TYPE": "U", "NORAD_CAT_ID": 35681, "ELEMENT_SET_NO": 999, "REV_AT_EPOCH": 87821, "BSTAR": 0.0002052, "MEAN_MOTION_DOT": 1.331e-05, "MEAN_MOTION_DDOT": 0}, "tle": {"line1": "1 35681U 09041A   25338.70904513  .00001331  00000+0  20520-3 0  9996", "line2": "2 35681  97.7146 139.6867 0002693  94.7346 265.4171 14.74933670878218"}}, "geometry": {"type": "Point", "coordinates": [141.23006990670095, -7.066028070064338]}}, {"type": "Feature", "properties": {"norad_id": 35683, "name": "UK-DMC 2", "group": "dmc", "lat": -9.791071404013842, "lon": 115.79605958931782, "alt_km": 647.7750302058703, "timestamp": "2025-12-05T07:38:18.515167+00:00", "meta": {"OBJECT_NAME": "UK-DMC 2", "OBJECT_ID": "2009-041C", "EPOCH": "2025-12-04T17:02:10.008384", "MEAN_MOTION": 14.75594479, "ECCENTRICITY": 0.000131, "INCLINATION": 97.8557, "RA_OF_ASC_NODE": 113.8398, "ARG_OF_PERICENTER": 102.5025, "MEAN_ANOMALY": 257.6331, "EPHEMERIS_TYPE": 0, "CLASSIFICATION_TYPE": "U", "NORAD_CAT_ID": 35683, "ELEMENT_SET_NO": 999, "REV_AT_EPOCH": 87788, "BSTAR": 0.00029244, "MEAN_MOTION_DOT": 1.945e-05, "MEAN_MOTION_DDOT": 0}, "tle": {"line1": "1 35683U 09041C   25338.70983806  .00001945  00000+0  29244-3 0  9993", "line2": "2 35683  97.8557 113.8398 0001310 102.5025 257.6331 14.75594479877881"}}, "geometry": {"type": "Point", "coordinates": [115.79605958931782, -9.791071404013842]}}, {"type": "Feature", "properties": {"norad_id": 40715, "name": "DMC3-FM1", "group": "dmc", "lat": 42.10168962559473, "lon": 33.77512581573606, "alt_km": 612.0113970704351, "timestamp": "2025-12-05T07:38:18.515177+00:00", "meta": {"OBJECT_NAME": "DMC3-FM1", "OBJECT_ID": "2015-032A", "EPOCH": "2025-12-04T18:05:19.385376", "MEAN_MOTION": 14.85419292, "ECCENTRICITY": 0.0005215, "INCLINATION": 97.6698, "RA_OF_ASC_NODE": 206.2369, "ARG_OF_PERICENTER": 349.7238, "MEAN_ANOMALY": 10.387, "EPHEMERIS_TYPE": 0, "CLASSIFICATION_TYPE": "U", "NORAD_CAT_ID": 40715, "ELEMENT_SET_NO": 999, "REV_AT_EPOCH": 56104, "BSTAR": 0.00019085, "MEAN_MOTION_DOT": 1.593e-05, "MEAN_MOTION_DDOT": 0}, "tle": {"line1": "1 40715U 15032A   25338.75369659  .00001593  00000+0  19085-3 0  9992", "line2": "2 40715  97.6698 206.2369 0005215 349.7238  10.3870 14.85419292561041"}}, "geometry": {"type": "Point", "coordinates": [33.77512581573606, 42.10168962559473]}}, {"type": "Feature", "properties": {"norad_id": 40716, "name": "DMC3-FM2", "group": "dmc", "lat": 16.808406600564183, "lon": -154.11553712970417, "alt_km": 609.1494360992219, "timestamp": "2025-12-05T07:38:18.515187+00:00", "meta": {"OBJECT_NAME": "DMC3-FM2", "OBJECT_ID": "2015-032B", "EPOCH": "2025-12-04T18:37:43.819968", "MEAN_MOTION": 14.85420605, "ECCENTRICITY": 0.0005863, "INCLINATION": 97.6755, "RA_OF_ASC_NODE": 207.6967, "ARG_OF_PERICENTER": 354.0102, "MEAN_ANOMALY": 6.1043, "EPHEMERIS_TYPE": 0, "CLASSIFICATION_TYPE": "U", "NORAD_CAT_ID": 40716, "ELEMENT_SET_NO": 999, "REV_AT_EPOCH": 56104, "BSTAR": 0.00018861, "MEAN_MOTION_DOT": 1.574e-05, "MEAN_MOTION_DDOT": 0}, "tle": {"line1": "1 40716U 15032B   25338.77620162  .00001574  00000+0  18861-3 0  9994", "line2": "2 40716  97.6755 207.6967 0005863 354.0102   6.1043 14.85420605561048"}}, "geometry": {"type": "Point", "coordinates": [-154.11553712970417, 16.808406600564183]}}, {"type": "Feature", "properties": {"norad_id": 40717, "name": "DMC3-FM3", "group": "dmc", "lat": -78.70832825287638, "lon": -12.677801162891951, "alt_km": 619.8119696139938, "timestamp": "2025-12-05T07:38:18.515197+00:00", "meta": {"OBJECT_NAME": "DMC3-FM3", "OBJECT_ID": "2015-032C", "EPOCH": "2025-12-04T19:08:47.790240", "MEAN_MOTION": 14.85413036, "ECCENTRICITY": 0.0005222, "INCLINATION": 97.681, "RA_OF_ASC_NODE": 209.3453, "ARG_OF_PERICENTER": 356.185, "MEAN_ANOMALY": 3.9325, "EPHEMERIS_TYPE": 0, "CLASSIFICATION_TYPE": "U", "NORAD_CAT_ID": 40717, "ELEMENT_SET_NO": 999, "REV_AT_EPOCH": 56105, "BSTAR": 0.00015178, "MEAN_MOTION_DOT": 1.256e-05, "MEAN_MOTION_DDOT": 0}, "tle": {"line1": "1 40717U 15032C   25338.79777535  .00001256  00000+0  15178-3 0  9999", "line2": "2 40717  97.6810 209.3453 0005222 356.1850   3.9325 14.85413036561051"}}, "geometry": {"type": "Point", "coordinates": [-12.677801162891951, -78.70832825287638]}}]}